{"type": "FeatureCollection", "features": [{"type": "Feature", "properties": {"norad_id": 36828, "name": "BEIDOU-2 IGSO-1 (C06)", "group": "beidou", "lat": 34.07794748501283, "lon": -44.49285188752567, "alt_km": 35741.02622171897, "timestamp": "2025-12-09T07:41:33.472801+00:00", "meta": {"OBJECT_NAME": "BEIDOU-2 IGSO-1 (C06)", "OBJECT_ID": "2010-036A", "EPOCH": "2025-12-08T22:40:34.354848", "MEAN_MOTION": 1.00277328, "ECCENTRICITY": 0.00512522, "INCLINATION": 54.2862, "RA_OF_ASC_NODE": 164.6817, "ARG_OF_PERICENTER": 215.9151, "MEAN_ANOMALY": 145.3362, "EPHEMERIS_TYPE": 0, "CLASSIFICATION_TYPE": "U", "NORAD_CAT_ID": 36828, "ELEMENT_SET_NO": 999, "REV_AT_EPOCH": 5619, "BSTAR": 0, "MEAN_MOTION_DOT": -6.9e-07, "MEAN_MOTION_DDOT": 0}, "tle": {"line1": "1 36828U 10036A   25342.94484207 -.00000069  00000+0  00000+0 0  9995", "line2": "2 36828  54.2862 164.6817 0051252 215.9151 145.3362  1.00277328 56193"}}, "geometry": {"type": "Point", "coordinates": [-44.49285188752567, 34.07794748501283]}}, {"type": "Feature", "properties": {"norad_id": 37210, "name": "BEIDOU-2 G4 (C04)", "group": "beidou", "lat": -3.0799884786456295, "lon": -6.077557416417125, "alt_km": 35790.213663648145, "timestamp": "2025-12-09T07:41:33.472826+00:00", "meta": {"OBJECT_NAME": "BEIDOU-2 G4 (C04)", "OBJECT_ID": "2010-057A", "EPOCH": "2025-12-08T21:12:47.118816", "MEAN_MOTION": 1.00271226, "ECCENTRICITY": 0.00109897, "INCLINATION": 3.1746, "RA_OF_ASC_NODE": 69.9384, "ARG_OF_PERICENTER": 189.498, "MEAN_ANOMALY": 296.7162, "EPHEMERIS_TYPE": 0, "CLASSIFICATION_TYPE": "U", "NORAD_CAT_ID": 37210, "ELEMENT_SET_NO": 999, "REV_AT_EPOCH": 5538, "BSTAR": 0, "MEAN_MOTION_DOT": -1.1e-06, "MEAN_MOTION_DDOT": 0}, "tle": {"line1": "1 37210U 10057A   25342.88387869 -.00000110  00000+0  00000+0 0  9990", "line2": "2 37210   3.1746  69.9384 0010989 189.4980 296.7162  1.00271226 55386"}}, "geometry": {"type": "Point", "coordinates": [-6.077557416417125, -3.0799884786456295]}}, {"type": "Feature", "properties": {"norad_id": 37256, "name": "BEIDOU-2 IGSO-2 (C07)", "group": "beidou", "lat": 19.731603100458425, "lon": -66.94121358714747, "alt_km": 35984.675344476425, "timestamp": "2025-12-09T07:41:33.472842+00:00", "meta": {"OBJECT_NAME": "BEIDOU-2 IGSO-2 (C07)", "OBJECT_ID": "2010-068A", "EPOCH": "2025-12-03T17:22:36.027840", "MEAN_MOTION": 1.0028872, "ECCENTRICITY": 0.00492449, "INCLINATION": 47.9042, "RA_OF_ASC_NODE": 274.2614, "ARG_OF_PERICENTER": 216.1411, "MEAN_ANOMALY": 310.24, "EPHEMERIS_TYPE": 0, "CLASSIFICATION_TYPE": "U", "NORAD_CAT_ID": 37256, "ELEMENT_SET_NO": 999, "REV_AT_EPOCH": 5483, "BSTAR": 0, "MEAN_MOTION_DOT": -2.25e-06, "MEAN_MOTION_DDOT": 0}, "tle": {"line1": "1 37256U 10068A   25337.72402810 -.00000225  00000+0  00000+0 0  9990", "line2": "2 37256  47.9042 274.2614 0049244 216.1411 310.2400  1.00288720 54834"}}, "geometry": {"type": "Point", "coordinates": [-66.94121358714747, 19.731603100458425]}}, {"type": "Feature", "properties": {"norad_id": 37384, "name": "BEIDOU-2 IGSO-3 (C08)", "group": "beidou", "lat": -60.45513654533247, "lon": -69.27498476192847, "alt_km": 35747.70653760254, "timestamp": "2025-12-09T07:41:33.472856+00:00", "meta": {"OBJECT_NAME": "BEIDOU-2 IGSO-3 (C08)", "OBJECT_ID": "2011-013A", "EPOCH": "2025-12-07T14:00:04.361184", "MEAN_MOTION": 1.00271435, "ECCENTRICITY": 0.0035334, "INCLINATION": 62.1366, "RA_OF_ASC_NODE": 41.9657, "ARG_OF_PERICENTER": 187.0632, "MEAN_ANOMALY": 165.2408, "EPHEMERIS_TYPE": 0, "CLASSIFICATION_TYPE": "U", "NORAD_CAT_ID": 37384, "ELEMENT_SET_NO": 999, "REV_AT_EPOCH": 5373, "BSTAR": 0, "MEAN_MOTION_DOT": -1.91e-06, "MEAN_MOTION_DDOT": 0}, "tle": {"line1": "1 37384U 11013A   25341.58338381 -.00000191  00000+0  00000+0 0  9995", "line2": "2 37384  62.1366  41.9657 0035334 187.0632 165.2408  1.00271435 53735"}}, "geometry": {"type": "Point", "coordinates": [-69.27498476192847, -60.45513654533247]}}, {"type": "Feature", "properties": {"norad_id": 37763, "name": "BEIDOU-2 IGSO-4 (C09)", "group": "beidou", "lat": 45.404131024843686, "lon": -58.905082457164475, "alt_km": 35997.918038519354, "timestamp": "2025-12-09T07:41:33.472869+00:00", "meta": {"OBJECT_NAME": "BEIDOU-2 IGSO-4 (C09)", "OBJECT_ID": "2011-038A", "EPOCH": "2025-12-01T12:32:09.960864", "MEAN_MOTION": 1.00284084, "ECCENTRICITY": 0.01488084, "INCLINATION": 54.5806, "RA_OF_ASC_NODE": 167.4476, "ARG_OF_PERICENTER": 230.2017, "MEAN_ANOMALY": 315.0405, "EPHEMERIS_TYPE": 0, "CLASSIFICATION_TYPE": "U", "NORAD_CAT_ID": 37763, "ELEMENT_SET_NO": 999, "REV_AT_EPOCH": 5266, "BSTAR": 0, "MEAN_MOTION_DOT": 1.01e-06, "MEAN_MOTION_DDOT": 0}, "tle": {"line1": "1 37763U 11038A   25335.52233751  .00000101  00000+0  00000+0 0  9995", "line2": "2 37763  54.5806 167.4476 0148808 230.2017 315.0405  1.00284084 52669"}}, "geometry": {"type": "Point", "coordinates": [-58.905082457164475, 45.404131024843686]}}, {"type": "Feature", "properties": {"norad_id": 37948, "name": "BEIDOU-2 IGSO-5 (C10)", "group": "beidou", "lat": 9.763902692330587, "lon": -77.2290617101594, "alt_km": 36185.446697543055, "timestamp": "2025-12-09T07:41:33.472883+00:00", "meta": {"OBJECT_NAME": "BEIDOU-2 IGSO-5 (C10)", "OBJECT_ID": "2011-073A", "EPOCH": "2025-12-07T19:12:14.882400", "MEAN_MOTION": 1.00291658, "ECCENTRICITY": 0.01104068, "INCLINATION": 48.0298, "RA_OF_ASC_NODE": 273.9181, "ARG_OF_PERICENTER": 222.1784, "MEAN_ANOMALY": 321.4594, "EPHEMERIS_TYPE": 0, "CLASSIFICATION_TYPE": "U", "NORAD_CAT_ID": 37948, "ELEMENT_SET_NO": 999, "REV_AT_EPOCH": 5121, "BSTAR": 0, "MEAN_MOTION_DOT": -1.91e-06, "MEAN_MOTION_DDOT": 0}, "tle": {"line1": "1 37948U 11073A   25341.80017225 -.00000191  00000+0  00000+0 0  9993", "line2": "2 37948  48.0298 273.9181 0110406 222.1784 321.4594  1.00291658 51212"}}, "geometry": {"type": "Point", "coordinates": [-77.2290617101594, 9.763902692330587]}}, {"type": "Feature", "properties": {"norad_id": 38091, "name": "BEIDOU-2 G5 (C05)", "group": "beidou", "lat": -0.10906946299494022, "lon": -107.65411427956474, "alt_km": 35747.515466248195, "timestamp": "2025-12-09T07:41:33.472896+00:00", "meta": {"OBJECT_NAME": "BEIDOU-2 G5 (C05)", "OBJECT_ID": "2012-008A", "EPOCH": "2025-12-08T22:34:38.601120", "MEAN_MOTION": 1.00274031, "ECCENTRICITY": 0.00125308, "INCLINATION": 3.0993, "RA_OF_ASC_NODE": 70.7121, "ARG_OF_PERICENTER": 226.1175, "MEAN_ANOMALY": 178.5121, "EPHEMERIS_TYPE": 0, "CLASSIFICATION_TYPE": "U", "NORAD_CAT_ID": 38091, "ELEMENT_SET_NO": 999, "REV_AT_EPOCH": 5046, "BSTAR": 0, "MEAN_MOTION_DOT": 5.8e-07, "MEAN_MOTION_DDOT": 0}, "tle": {"line1": "1 38091U 12008A   25342.94072455  .00000058  00000+0  00000+0 0  9995", "line2": "2 38091   3.0993  70.7121 0012530 226.1175 178.5121  1.00274031 50468"}}, "geometry": {"type": "Point", "coordinates": [-107.65411427956474, -0.10906946299494022]}}, {"type": "Feature", "properties": {"norad_id": 38250, "name": "BEIDOU-2 M3 (C11)", "group": "beidou", "lat": 29.33580459678281, "lon": 108.90890063156068, "alt_km": 21568.77053794103, "timestamp": "2025-12-09T07:41:33.472909+00:00", "meta": {"OBJECT_NAME": "BEIDOU-2 M3 (C11)", "OBJECT_ID": "2012-018A", "EPOCH": "2025-12-08T13:38:39.271776", "MEAN_MOTION": 1.86229758, "ECCENTRICITY": 0.0024371, "INCLINATION": 55.9237, "RA_OF_ASC_NODE": 311.2977, "ARG_OF_PERICENTER": 274.148, "MEAN_ANOMALY": 85.5607, "EPHEMERIS_TYPE": 0, "CLASSIFICATION_TYPE": "U", "NORAD_CAT_ID": 38250, "ELEMENT_SET_NO": 999, "REV_AT_EPOCH": 9239, "BSTAR": 0, "MEAN_MOTION_DOT": -7.3e-07, "MEAN_MOTION_DDOT": 0}, "tle": {"line1": "1 38250U 12018A   25342.56851009 -.00000073  00000+0  00000+0 0  9999", "line2": "2 38250  55.9237 311.2977 0024371 274.1480  85.5607  1.86229758 92396"}}, "geometry": {"type": "Point", "coordinates": [108.90890063156068, 29.33580459678281]}}, {"type": "Feature", "properties": {"norad_id": 38251, "name": "BEIDOU-2 M4 (C12)", "group": "beidou", "lat": -7.794914742090228, "lon": 135.81630376292935, "alt_km": 21528.06093350438, "timestamp": "2025-12-09T07:41:33.472921+00:00", "meta": {"OBJECT_NAME": "BEIDOU-2 M4 (C12)", "OBJECT_ID": "2012-018B", "EPOCH": "2025-12-08T12:00:48.229344", "MEAN_MOTION": 1.86229448, "ECCENTRICITY": 0.0015516, "INCLINATION": 55.8253, "RA_OF_ASC_NODE": 310.5294, "ARG_OF_PERICENTER": 277.5058, "MEAN_ANOMALY": 82.3051, "EPHEMERIS_TYPE": 0, "CLASSIFICATION_TYPE": "U", "NORAD_CAT_ID": 38251, "ELEMENT_SET_NO": 999, "REV_AT_EPOCH": 9239, "BSTAR": 0, "MEAN_MOTION_DOT": -7.3e-07, "MEAN_MOTION_DDOT": 0}, "tle": {"line1": "1 38251U 12018B   25342.50055821 -.00000073  00000+0  00000+0 0  9992", "line2": "2 38251  55.8253 310.5294 0015516 277.5058  82.3051  1.86229448 92391"}}, "geometry": {"type": "Point", "coordinates": [135.81630376292935, -7.794914742090228]}}, {"type": "Feature", "properties": {"norad_id": 38775, "name": "BEIDOU-2 M6 (C14)", "group": "beidou", "lat": 19.470382462469576, "lon": 82.77768927659483, "alt_km": 21501.572092051727, "timestamp": "2025-12-09T07:41:33.472932+00:00", "meta": {"OBJECT_NAME": "BEIDOU-2 M6 (C14)", "OBJECT_ID": "2012-050B", "EPOCH": "2025-12-08T05:04:33.479040", "MEAN_MOTION": 1.86230723, "ECCENTRICITY": 0.00110356, "INCLINATION": 56.3747, "RA_OF_ASC_NODE": 69.2178, "ARG_OF_PERICENTER": 345.3738, "MEAN_ANOMALY": 14.6151, "EPHEMERIS_TYPE": 0, "CLASSIFICATION_TYPE": "U", "NORAD_CAT_ID": 38775, "ELEMENT_SET_NO": 999, "REV_AT_EPOCH": 8975, "BSTAR": 0, "MEAN_MOTION_DOT": -4.4e-07, "MEAN_MOTION_DDOT": 0}, "tle": {"line1": "1 38775U 12050B   25342.21149860 -.00000044  00000+0  00000+0 0  9992", "line2": "2 38775  56.3747  69.2178 0011035 345.3738  14.6151  1.86230723 89759"}}, "geometry": {"type": "Point", "coordinates": [82.77768927659483, 19.470382462469576]}}]}